geometry;currentorder;area
POLYGON ((5.0000 0.0000, 6.0000 0.0000, 6.0000 1.0000, 5.0000 1.0000, 5.0000 0.0000));0;1.0000
POLYGON ((5.0000 1.0000, 5.7071 1.7071, 5.0000 2.4142, 4.2929 1.7071, 5.0000 1.0000));1;1.0000
POLYGON ((4.2929 1.7071, 4.2929 2.7071, 3.2929 2.7071, 3.2929 1.7071, 4.2929 1.7071));2;1.0000
POLYGON ((3.2929 1.7071, 2.5858 2.4142, 1.8787 1.7071, 2.5858 1.0000, 3.2929 1.7071));3;1.0000
POLYGON ((2.5858 1.0000, 1.5858 1.0000, 1.5858 0.0000, 2.5858 0.0000, 2.5858 1.0000));4;1.0000
POLYGON ((2.5858 0.0000, 1.8787 -0.7071, 2.5858 -1.4142, 3.2929 -0.7071, 2.5858 0.0000));5;1.0000
POLYGON ((3.2929 -0.7071, 3.2929 -1.7071, 4.2929 -1.7071, 4.2929 -0.7071, 3.2929 -0.7071));6;1.0000
POLYGON ((3.2929 -1.7071, 2.5858 -1.4142, 2.2929 -2.1213, 3.0000 -2.4142, 3.2929 -1.7071));6;0.5858
POLYGON ((1.8787 -0.7071, 1.5858 0.0000, 0.8787 -0.2929, 1.1716 -1.0000, 1.8787 -0.7071));5;0.5858
POLYGON ((1.1716 -1.0000, 0.4645 -0.7071, 0.1716 -1.4142, 0.8787 -1.7071, 1.1716 -1.0000));6;0.5858
POLYGON ((0.4645 -0.7071, 0.8787 -0.2929, 0.4645 0.1213, 0.0503 -0.2929, 0.4645 -0.7071));6;0.3431
POLYGON ((1.5858 1.0000, 1.8787 1.7071, 1.1716 2.0000, 0.8787 1.2929, 1.5858 1.0000));4;0.5858
POLYGON ((0.8787 1.2929, 0.5858 2.0000, -0.1213 1.7071, 0.1716 1.0000, 0.8787 1.2929));5;0.5858
POLYGON ((0.1716 1.0000, -0.5355 1.2929, -0.8284 0.5858, -0.1213 0.2929, 0.1716 1.0000));6;0.5858
POLYGON ((-0.5355 1.2929, -0.1213 1.7071, -0.5355 2.1213, -0.9497 1.7071, -0.5355 1.2929));6;0.3431
POLYGON ((0.5858 2.0000, 1.1716 2.0000, 1.1716 2.5858, 0.5858 2.5858, 0.5858 2.0000));5;0.3431
POLYGON ((0.5858 2.5858, 1.0000 3.0000, 0.5858 3.4142, 0.1716 3.0000, 0.5858 2.5858));6;0.3431
POLYGON ((1.0000 3.0000, 1.1716 2.5858, 1.5858 2.7574, 1.4142 3.1716, 1.0000 3.0000));6;0.2010
POLYGON ((2.5858 2.4142, 3.2929 2.7071, 3.0000 3.4142, 2.2929 3.1213, 2.5858 2.4142));3;0.5858
POLYGON ((2.2929 3.1213, 2.5858 3.8284, 1.8787 4.1213, 1.5858 3.4142, 2.2929 3.1213));4;0.5858
POLYGON ((1.5858 3.4142, 1.2929 4.1213, 0.5858 3.8284, 0.8787 3.1213, 1.5858 3.4142));5;0.5858
POLYGON ((0.8787 3.1213, 0.1716 3.4142, -0.1213 2.7071, 0.5858 2.4142, 0.8787 3.1213));6;0.5858
POLYGON ((0.1716 3.4142, 0.5858 3.8284, 0.1716 4.2426, -0.2426 3.8284, 0.1716 3.4142));6;0.3431
POLYGON ((1.2929 4.1213, 1.8787 4.1213, 1.8787 4.7071, 1.2929 4.7071, 1.2929 4.1213));5;0.3431
POLYGON ((1.2929 4.7071, 1.7071 5.1213, 1.2929 5.5355, 0.8787 5.1213, 1.2929 4.7071));6;0.3431
POLYGON ((1.7071 5.1213, 1.8787 4.7071, 2.2929 4.8787, 2.1213 5.2929, 1.7071 5.1213));6;0.2010
POLYGON ((2.5858 3.8284, 3.0000 3.4142, 3.4142 3.8284, 3.0000 4.2426, 2.5858 3.8284));4;0.3431
POLYGON ((3.0000 4.2426, 3.5858 4.2426, 3.5858 4.8284, 3.0000 4.8284, 3.0000 4.2426));5;0.3431
POLYGON ((3.0000 4.8284, 3.4142 5.2426, 3.0000 5.6569, 2.5858 5.2426, 3.0000 4.8284));6;0.3431
POLYGON ((3.4142 5.2426, 3.5858 4.8284, 4.0000 5.0000, 3.8284 5.4142, 3.4142 5.2426));6;0.2010
POLYGON ((3.5858 4.2426, 3.4142 3.8284, 3.8284 3.6569, 4.0000 4.0711, 3.5858 4.2426));5;0.2010
POLYGON ((4.0000 4.0711, 4.1716 3.6569, 4.5858 3.8284, 4.4142 4.2426, 4.0000 4.0711));6;0.2010
POLYGON ((4.1716 3.6569, 3.8284 3.6569, 3.8284 3.3137, 4.1716 3.3137, 4.1716 3.6569));6;0.1177
POLYGON ((4.2929 2.7071, 5.0000 2.4142, 5.2929 3.1213, 4.5858 3.4142, 4.2929 2.7071));2;0.5858
POLYGON ((4.5858 3.4142, 5.2929 3.7071, 5.0000 4.4142, 4.2929 4.1213, 4.5858 3.4142));3;0.5858
POLYGON ((4.2929 4.1213, 4.5858 4.8284, 3.8787 5.1213, 3.5858 4.4142, 4.2929 4.1213));4;0.5858
POLYGON ((3.5858 4.4142, 3.2929 5.1213, 2.5858 4.8284, 2.8787 4.1213, 3.5858 4.4142));5;0.5858
POLYGON ((2.8787 4.1213, 2.1716 4.4142, 1.8787 3.7071, 2.5858 3.4142, 2.8787 4.1213));6;0.5858
POLYGON ((2.1716 4.4142, 2.5858 4.8284, 2.1716 5.2426, 1.7574 4.8284, 2.1716 4.4142));6;0.3431
POLYGON ((3.2929 5.1213, 3.8787 5.1213, 3.8787 5.7071, 3.2929 5.7071, 3.2929 5.1213));5;0.3431
POLYGON ((3.2929 5.7071, 3.7071 6.1213, 3.2929 6.5355, 2.8787 6.1213, 3.2929 5.7071));6;0.3431
POLYGON ((3.7071 6.1213, 3.8787 5.7071, 4.2929 5.8787, 4.1213 6.2929, 3.7071 6.1213));6;0.2010
POLYGON ((4.5858 4.8284, 5.0000 4.4142, 5.4142 4.8284, 5.0000 5.2426, 4.5858 4.8284));4;0.3431
POLYGON ((5.0000 5.2426, 5.5858 5.2426, 5.5858 5.8284, 5.0000 5.8284, 5.0000 5.2426));5;0.3431
POLYGON ((5.0000 5.8284, 5.4142 6.2426, 5.0000 6.6569, 4.5858 6.2426, 5.0000 5.8284));6;0.3431
POLYGON ((5.4142 6.2426, 5.5858 5.8284, 6.0000 6.0000, 5.8284 6.4142, 5.4142 6.2426));6;0.2010
POLYGON ((5.5858 5.2426, 5.4142 4.8284, 5.8284 4.6569, 6.0000 5.0711, 5.5858 5.2426));5;0.2010
POLYGON ((6.0000 5.0711, 6.1716 4.6569, 6.5858 4.8284, 6.4142 5.2426, 6.0000 5.0711));6;0.2010
POLYGON ((6.1716 4.6569, 5.8284 4.6569, 5.8284 4.3137, 6.1716 4.3137, 6.1716 4.6569));6;0.1177
POLYGON ((5.2929 3.7071, 5.2929 3.1213, 5.8787 3.1213, 5.8787 3.7071, 5.2929 3.7071));3;0.3431
POLYGON ((5.8787 3.7071, 6.2929 3.2929, 6.7071 3.7071, 6.2929 4.1213, 5.8787 3.7071));4;0.3431
POLYGON ((6.2929 4.1213, 6.8787 4.1213, 6.8787 4.7071, 6.2929 4.7071, 6.2929 4.1213));5;0.3431
POLYGON ((6.2929 4.7071, 6.7071 5.1213, 6.2929 5.5355, 5.8787 5.1213, 6.2929 4.7071));6;0.3431
POLYGON ((6.7071 5.1213, 6.8787 4.7071, 7.2929 4.8787, 7.1213 5.2929, 6.7071 5.1213));6;0.2010
POLYGON ((6.8787 4.1213, 6.7071 3.7071, 7.1213 3.5355, 7.2929 3.9497, 6.8787 4.1213));5;0.2010
POLYGON ((7.2929 3.9497, 7.4645 3.5355, 7.8787 3.7071, 7.7071 4.1213, 7.2929 3.9497));6;0.2010
POLYGON ((7.4645 3.5355, 7.1213 3.5355, 7.1213 3.1924, 7.4645 3.1924, 7.4645 3.5355));6;0.1177
POLYGON ((6.2929 3.2929, 5.8787 3.1213, 6.0503 2.7071, 6.4645 2.8787, 6.2929 3.2929));4;0.2010
POLYGON ((6.4645 2.8787, 6.2929 2.4645, 6.7071 2.2929, 6.8787 2.7071, 6.4645 2.8787));5;0.2010
POLYGON ((6.8787 2.7071, 7.0503 2.2929, 7.4645 2.4645, 7.2929 2.8787, 6.8787 2.7071));6;0.2010
POLYGON ((7.0503 2.2929, 6.7071 2.2929, 6.7071 1.9497, 7.0503 1.9497, 7.0503 2.2929));6;0.1177
POLYGON ((6.2929 2.4645, 6.0503 2.7071, 5.8076 2.4645, 6.0503 2.2218, 6.2929 2.4645));5;0.1177
POLYGON ((6.0503 2.2218, 5.7071 2.2218, 5.7071 1.8787, 6.0503 1.8787, 6.0503 2.2218));6;0.1177
POLYGON ((5.7071 2.2218, 5.8076 2.4645, 5.5650 2.5650, 5.4645 2.3223, 5.7071 2.2218));6;0.0690
POLYGON ((5.7071 1.7071, 6.0000 1.0000, 6.7071 1.2929, 6.4142 2.0000, 5.7071 1.7071));1;0.5858
POLYGON ((6.4142 2.0000, 7.1213 1.7071, 7.4142 2.4142, 6.7071 2.7071, 6.4142 2.0000));2;0.5858
POLYGON ((6.7071 2.7071, 7.4142 3.0000, 7.1213 3.7071, 6.4142 3.4142, 6.7071 2.7071));3;0.5858
POLYGON ((6.4142 3.4142, 6.7071 4.1213, 6.0000 4.4142, 5.7071 3.7071, 6.4142 3.4142));4;0.5858
POLYGON ((5.7071 3.7071, 5.4142 4.4142, 4.7071 4.1213, 5.0000 3.4142, 5.7071 3.7071));5;0.5858
POLYGON ((5.0000 3.4142, 4.2929 3.7071, 4.0000 3.0000, 4.7071 2.7071, 5.0000 3.4142));6;0.5858
POLYGON ((4.2929 3.7071, 4.7071 4.1213, 4.2929 4.5355, 3.8787 4.1213, 4.2929 3.7071));6;0.3431
POLYGON ((5.4142 4.4142, 6.0000 4.4142, 6.0000 5.0000, 5.4142 5.0000, 5.4142 4.4142));5;0.3431
POLYGON ((5.4142 5.0000, 5.8284 5.4142, 5.4142 5.8284, 5.0000 5.4142, 5.4142 5.0000));6;0.3431
POLYGON ((5.8284 5.4142, 6.0000 5.0000, 6.4142 5.1716, 6.2426 5.5858, 5.8284 5.4142));6;0.2010
POLYGON ((6.7071 4.1213, 7.1213 3.7071, 7.5355 4.1213, 7.1213 4.5355, 6.7071 4.1213));4;0.3431
POLYGON ((7.1213 4.5355, 7.7071 4.5355, 7.7071 5.1213, 7.1213 5.1213, 7.1213 4.5355));5;0.3431
POLYGON ((7.1213 5.1213, 7.5355 5.5355, 7.1213 5.9497, 6.7071 5.5355, 7.1213 5.1213));6;0.3431
POLYGON ((7.5355 5.5355, 7.7071 5.1213, 8.1213 5.2929, 7.9497 5.7071, 7.5355 5.5355));6;0.2010
POLYGON ((7.7071 4.5355, 7.5355 4.1213, 7.9497 3.9497, 8.1213 4.3640, 7.7071 4.5355));5;0.2010
POLYGON ((8.1213 4.3640, 8.2929 3.9497, 8.7071 4.1213, 8.5355 4.5355, 8.1213 4.3640));6;0.2010
POLYGON ((8.2929 3.9497, 7.9497 3.9497, 7.9497 3.6066, 8.2929 3.6066, 8.2929 3.9497));6;0.1177
POLYGON ((7.4142 3.0000, 7.4142 2.4142, 8.0000 2.4142, 8.0000 3.0000, 7.4142 3.0000));3;0.3431
POLYGON ((8.0000 3.0000, 8.4142 2.5858, 8.8284 3.0000, 8.4142 3.4142, 8.0000 3.0000));4;0.3431
POLYGON ((8.4142 3.4142, 9.0000 3.4142, 9.0000 4.0000, 8.4142 4.0000, 8.4142 3.4142));5;0.3431
POLYGON ((8.4142 4.0000, 8.8284 4.4142, 8.4142 4.8284, 8.0000 4.4142, 8.4142 4.0000));6;0.3431
POLYGON ((8.8284 4.4142, 9.0000 4.0000, 9.4142 4.1716, 9.2426 4.5858, 8.8284 4.4142));6;0.2010
POLYGON ((9.0000 3.4142, 8.8284 3.0000, 9.2426 2.8284, 9.4142 3.2426, 9.0000 3.4142));5;0.2010
POLYGON ((9.4142 3.2426, 9.5858 2.8284, 10.0000 3.0000, 9.8284 3.4142, 9.4142 3.2426));6;0.2010
POLYGON ((9.5858 2.8284, 9.2426 2.8284, 9.2426 2.4853, 9.5858 2.4853, 9.5858 2.8284));6;0.1177
POLYGON ((8.4142 2.5858, 8.0000 2.4142, 8.1716 2.0000, 8.5858 2.1716, 8.4142 2.5858));4;0.2010
POLYGON ((8.5858 2.1716, 8.4142 1.7574, 8.8284 1.5858, 9.0000 2.0000, 8.5858 2.1716));5;0.2010
POLYGON ((9.0000 2.0000, 9.1716 1.5858, 9.5858 1.7574, 9.4142 2.1716, 9.0000 2.0000));6;0.2010
POLYGON ((9.1716 1.5858, 8.8284 1.5858, 8.8284 1.2426, 9.1716 1.2426, 9.1716 1.5858));6;0.1177
POLYGON ((8.4142 1.7574, 8.1716 2.0000, 7.9289 1.7574, 8.1716 1.5147, 8.4142 1.7574));5;0.1177
POLYGON ((8.1716 1.5147, 7.8284 1.5147, 7.8284 1.1716, 8.1716 1.1716, 8.1716 1.5147));6;0.1177
POLYGON ((7.8284 1.5147, 7.9289 1.7574, 7.6863 1.8579, 7.5858 1.6152, 7.8284 1.5147));6;0.0690
POLYGON ((7.1213 1.7071, 6.7071 1.2929, 7.1213 0.8787, 7.5355 1.2929, 7.1213 1.7071));2;0.3431
POLYGON ((7.5355 1.2929, 7.5355 0.7071, 8.1213 0.7071, 8.1213 1.2929, 7.5355 1.2929));3;0.3431
POLYGON ((8.1213 1.2929, 8.5355 0.8787, 8.9497 1.2929, 8.5355 1.7071, 8.1213 1.2929));4;0.3431
POLYGON ((8.5355 1.7071, 9.1213 1.7071, 9.1213 2.2929, 8.5355 2.2929, 8.5355 1.7071));5;0.3431
POLYGON ((8.5355 2.2929, 8.9497 2.7071, 8.5355 3.1213, 8.1213 2.7071, 8.5355 2.2929));6;0.3431
POLYGON ((8.9497 2.7071, 9.1213 2.2929, 9.5355 2.4645, 9.3640 2.8787, 8.9497 2.7071));6;0.2010
POLYGON ((9.1213 1.7071, 8.9497 1.2929, 9.3640 1.1213, 9.5355 1.5355, 9.1213 1.7071));5;0.2010
POLYGON ((9.5355 1.5355, 9.7071 1.1213, 10.1213 1.2929, 9.9497 1.7071, 9.5355 1.5355));6;0.2010
POLYGON ((9.7071 1.1213, 9.3640 1.1213, 9.3640 0.7782, 9.7071 0.7782, 9.7071 1.1213));6;0.1177
POLYGON ((8.5355 0.8787, 8.1213 0.7071, 8.2929 0.2929, 8.7071 0.4645, 8.5355 0.8787));4;0.2010
POLYGON ((8.7071 0.4645, 8.5355 0.0503, 8.9497 -0.1213, 9.1213 0.2929, 8.7071 0.4645));5;0.2010
POLYGON ((9.1213 0.2929, 9.2929 -0.1213, 9.7071 0.0503, 9.5355 0.4645, 9.1213 0.2929));6;0.2010
POLYGON ((9.2929 -0.1213, 8.9497 -0.1213, 8.9497 -0.4645, 9.2929 -0.4645, 9.2929 -0.1213));6;0.1177
POLYGON ((8.5355 0.0503, 8.2929 0.2929, 8.0503 0.0503, 8.2929 -0.1924, 8.5355 0.0503));5;0.1177
POLYGON ((8.2929 -0.1924, 7.9497 -0.1924, 7.9497 -0.5355, 8.2929 -0.5355, 8.2929 -0.1924));6;0.1177
POLYGON ((7.9497 -0.1924, 8.0503 0.0503, 7.8076 0.1508, 7.7071 -0.0919, 7.9497 -0.1924));6;0.0690
POLYGON ((7.5355 0.7071, 7.1213 0.8787, 6.9497 0.4645, 7.3640 0.2929, 7.5355 0.7071));3;0.2010
POLYGON ((7.3640 0.2929, 6.9497 0.1213, 7.1213 -0.2929, 7.5355 -0.1213, 7.3640 0.2929));4;0.2010
POLYGON ((7.5355 -0.1213, 7.3640 -0.5355, 7.7782 -0.7071, 7.9497 -0.2929, 7.5355 -0.1213));5;0.2010
POLYGON ((7.9497 -0.2929, 8.1213 -0.7071, 8.5355 -0.5355, 8.3640 -0.1213, 7.9497 -0.2929));6;0.2010
POLYGON ((8.1213 -0.7071, 7.7782 -0.7071, 7.7782 -1.0503, 8.1213 -1.0503, 8.1213 -0.7071));6;0.1177
POLYGON ((7.3640 -0.5355, 7.1213 -0.2929, 6.8787 -0.5355, 7.1213 -0.7782, 7.3640 -0.5355));5;0.1177
POLYGON ((7.1213 -0.7782, 6.7782 -0.7782, 6.7782 -1.1213, 7.1213 -1.1213, 7.1213 -0.7782));6;0.1177
POLYGON ((6.7782 -0.7782, 6.8787 -0.5355, 6.6360 -0.4350, 6.5355 -0.6777, 6.7782 -0.7782));6;0.0690
POLYGON ((6.9497 0.1213, 6.9497 0.4645, 6.6066 0.4645, 6.6066 0.1213, 6.9497 0.1213));4;0.1177
POLYGON ((6.6066 0.1213, 6.3640 0.3640, 6.1213 0.1213, 6.3640 -0.1213, 6.6066 0.1213));5;0.1177
POLYGON ((6.3640 -0.1213, 6.0208 -0.1213, 6.0208 -0.4645, 6.3640 -0.4645, 6.3640 -0.1213));6;0.1177
POLYGON ((6.0208 -0.1213, 6.1213 0.1213, 5.8787 0.2218, 5.7782 -0.0208, 6.0208 -0.1213));6;0.0690
POLYGON ((6.3640 0.3640, 6.6066 0.4645, 6.5061 0.7071, 6.2635 0.6066, 6.3640 0.3640));5;0.0690
POLYGON ((6.2635 0.6066, 6.3640 0.8492, 6.1213 0.9497, 6.0208 0.7071, 6.2635 0.6066));6;0.0690
POLYGON ((6.3640 0.8492, 6.5061 0.7071, 6.6482 0.8492, 6.5061 0.9914, 6.3640 0.8492));6;0.0404
